{
  "type": "FeatureCollection",
  "features": [
    {
      "type": "Feature",
      "properties": {
        "norad_id": 65731,
        "name": "1998-067XK",
        "group": "stations",
        "lat": -10.075171868165166,
        "lon": 143.74524393315693,
        "alt_km": 377.0562450174448,
        "timestamp": "2025-12-09T20:37:08.072993+00:00",
        "meta_object_name": "1998-067XK",
        "meta_object_id": "1998-067XK",
        "meta_epoch": "2025-12-09T11:28:42.048480",
        "meta_mean_motion": 15.6489001,
        "meta_eccentricity": 0.00052455,
        "meta_inclination": 51.6282,
        "meta_ra_of_asc_node": 153.7695,
        "meta_arg_of_pericenter": 225.0581,
        "meta_mean_anomaly": 134.9989,
        "meta_ephemeris_type": 0,
        "meta_classification_type": "U",
        "meta_norad_cat_id": 65731,
        "meta_element_set_no": 999,
        "meta_rev_at_epoch": 1263,
        "meta_bstar": 0.0011288356,
        "meta_mean_motion_dot": 0.00113689,
        "meta_mean_motion_ddot": 0,
        "tle_line1": "1 65731U 98067XK  25343.47826445  .00113689  00000+0  11288-2 0  9998",
        "tle_line2": "2 65731  51.6282 153.7695 0005245 225.0581 134.9989 15.64890010 12632"
      },
      "geometry": {
        "type": "Point",
        "coordinates": [
          143.74524393315693,
          -10.075171868165166
        ]
      }
    },
    {
      "type": "Feature",
      "properties": {
        "norad_id": 65732,
        "name": "RSP-03",
        "group": "stations",
        "lat": -47.07943921541418,
        "lon": 92.75230527780805,
        "alt_km": 368.1354800865356,
        "timestamp": "2025-12-09T20:37:08.073006+00:00",
        "meta_object_name": "RSP-03",
        "meta_object_id": "1998-067XL",
        "meta_epoch": "2025-12-09T11:43:58.717920",
        "meta_mean_motion": 15.67520874,
        "meta_eccentricity": 0.00060112,
        "meta_inclination": 51.626,
        "meta_ra_of_asc_node": 153.082,
        "meta_arg_of_pericenter": 229.3299,
        "meta_mean_anomaly": 130.7176,
        "meta_ephemeris_type": 0,
        "meta_classification_type": "U",
        "meta_norad_cat_id": 65732,
        "meta_element_set_no": 999,
        "meta_rev_at_epoch": 1265,
        "meta_bstar": 0.001321043,
        "meta_mean_motion_dot": 0.00148707,
        "meta_mean_motion_ddot": 0,
        "tle_line1": "1 65732U 98067XL  25343.48887405  .00148707  00000+0  13210-2 0  9999",
        "tle_line2": "2 65732  51.6260 153.0820 0006011 229.3299 130.7176 15.67520874 12652"
      },
      "geometry": {
        "type": "Point",
        "coordinates": [
          92.75230527780805,
          -47.07943921541418
        ]
      }
    },
    {
      "type": "Feature",
      "properties": {
        "norad_id": 65733,
        "name": "GHS-01",
        "group": "stations",
        "lat": 25.282484447665276,
        "lon": -51.98357483417173,
        "alt_km": 348.2829461884194,
        "timestamp": "2025-12-09T20:37:08.073017+00:00",
        "meta_object_name": "GHS-01",
        "meta_object_id": "1998-067XM",
        "meta_epoch": "2025-12-09T00:10:31.774944",
        "meta_mean_motion": 15.72845555,
        "meta_eccentricity": 0.00068773,
        "meta_inclination": 51.6283,
        "meta_ra_of_asc_node": 154.3653,
        "meta_arg_of_pericenter": 253.5848,
        "meta_mean_anomaly": 106.4394,
        "meta_ephemeris_type": 0,
        "meta_classification_type": "U",
        "meta_norad_cat_id": 65733,
        "meta_element_set_no": 999,
        "meta_rev_at_epoch": 1259,
        "meta_bstar": 0.0015000957,
        "meta_mean_motion_dot": 0.0021266,
        "meta_mean_motion_ddot": 0,
        "tle_line1": "1 65733U 98067XM  25343.00731221  .00212660  00000+0  15001-2 0  9992",
        "tle_line2": "2 65733  51.6283 154.3653 0006877 253.5848 106.4394 15.72845555 12592"
      },
      "geometry": {
        "type": "Point",
        "coordinates": [
          -51.98357483417173,
          25.282484447665276
        ]
      }
    },
    {
      "type": "Feature",
      "properties": {
        "norad_id": 65941,
        "name": "YOTSUBA-KULOVER",
        "group": "stations",
        "lat": 5.962053327262323,
        "lon": -30.297062888737347,
        "alt_km": 389.9946350933351,
        "timestamp": "2025-12-09T20:37:08.073027+00:00",
        "meta_object_name": "YOTSUBA-KULOVER",
        "meta_object_id": "1998-067XN",
        "meta_epoch": "2025-12-09T12:11:24.743328",
        "meta_mean_motion": 15.58849812,
        "meta_eccentricity": 0.00016122,
        "meta_inclination": 51.6274,
        "meta_ra_of_asc_node": 156.2142,
        "meta_arg_of_pericenter": 216.6617,
        "meta_mean_anomaly": 143.4266,
        "meta_ephemeris_type": 0,
        "meta_classification_type": "U",
        "meta_norad_cat_id": 65941,
        "meta_element_set_no": 999,
        "meta_rev_at_epoch": 935,
        "meta_bstar": 0.0010220852,
        "meta_mean_motion_dot": 0.0008095,
        "meta_mean_motion_ddot": 0,
        "tle_line1": "1 65941U 98067XN  25343.50792527  .00080950  00000+0  10221-2 0  9998",
        "tle_line2": "2 65941  51.6274 156.2142 0001612 216.6617 143.4266 15.58849812  9356"
      },
      "geometry": {
        "type": "Point",
        "coordinates": [
          -30.297062888737347,
          5.962053327262323
        ]
      }
    },
    {
      "type": "Feature",
      "properties": {
        "norad_id": 65942,
        "name": "BOTAN",
        "group": "stations",
        "lat": 48.61711092344526,
        "lon": -90.22966503219853,
        "alt_km": 375.7729974478798,
        "timestamp": "2025-12-09T20:37:08.073038+00:00",
        "meta_object_name": "BOTAN",
        "meta_object_id": "1998-067XP",
        "meta_epoch": "2025-12-09T12:29:10.787136",
        "meta_mean_motion": 15.61959609,
        "meta_eccentricity": 0.00035005,
        "meta_inclination": 51.628,
        "meta_ra_of_asc_node": 155.5477,
        "meta_arg_of_pericenter": 212.819,
        "meta_mean_anomaly": 147.2587,
        "meta_ephemeris_type": 0,
        "meta_classification_type": "U",
        "meta_norad_cat_id": 65942,
        "meta_element_set_no": 999,
        "meta_rev_at_epoch": 936,
        "meta_bstar": 0.00138053,
        "meta_mean_motion_dot": 0.00124109,
        "meta_mean_motion_ddot": 0,
        "tle_line1": "1 65942U 98067XP  25343.52026374  .00124109  00000+0  13805-2 0  9997",
        "tle_line2": "2 65942  51.6280 155.5477 0003500 212.8190 147.2587 15.61959609  9368"
      },
      "geometry": {
        "type": "Point",
        "coordinates": [
          -90.22966503219853,
          48.61711092344526
        ]
      }
    },
    {
      "type": "Feature",
      "properties": {
        "norad_id": 65943,
        "name": "E-KAGAKU-1",
        "group": "stations",
        "lat": 6.231146940122207,
        "lon": -30.508726170765886,
        "alt_km": 389.0501319149125,
        "timestamp": "2025-12-09T20:37:08.073048+00:00",
        "meta_object_name": "E-KAGAKU-1",
        "meta_object_id": "1998-067XQ",
        "meta_epoch": "2025-12-08T17:43:35.861664",
        "meta_mean_motion": 15.58651727,
        "meta_eccentricity": 0.00029774,
        "meta_inclination": 51.6297,
        "meta_ra_of_asc_node": 160.0822,
        "meta_arg_of_pericenter": 178.8942,
        "meta_mean_anomaly": 181.2057,
        "meta_ephemeris_type": 0,
        "meta_classification_type": "U",
        "meta_norad_cat_id": 65943,
        "meta_element_set_no": 999,
        "meta_rev_at_epoch": 923,
        "meta_bstar": 0.00085624806,
        "meta_mean_motion_dot": 0.00067115,
        "meta_mean_motion_ddot": 0,
        "tle_line1": "1 65943U 98067XQ  25342.73860951  .00067115  00000+0  85625-3 0  9990",
        "tle_line2": "2 65943  51.6297 160.0822 0002977 178.8942 181.2057 15.58651727  9237"
      },
      "geometry": {
        "type": "Point",
        "coordinates": [
          -30.508726170765886,
          6.231146940122207
        ]
      }
    },
    {
      "type": "Feature",
      "properties": {
        "norad_id": 66052,
        "name": "HRC MONOBLOCK CAMERA",
        "group": "stations",
        "lat": -23.26008875928148,
        "lon": -4.221200104667183,
        "alt_km": 406.7105231049409,
        "timestamp": "2025-12-09T20:37:08.073058+00:00",
        "meta_object_name": "HRC MONOBLOCK CAMERA",
        "meta_object_id": "1998-067XR",
        "meta_epoch": "2025-12-09T12:00:01.915488",
        "meta_mean_motion": 15.53794743,
        "meta_eccentricity": 0.00038118,
        "meta_inclination": 51.629,
        "meta_ra_of_asc_node": 157.6571,
        "meta_arg_of_pericenter": 171.0105,
        "meta_mean_anomaly": 189.0954,
        "meta_ephemeris_type": 0,
        "meta_classification_type": "U",
        "meta_norad_cat_id": 66052,
        "meta_element_set_no": 999,
        "meta_rev_at_epoch": 833,
        "meta_bstar": 0.00068667164,
        "meta_mean_motion_dot": 0.0004469,
        "meta_mean_motion_ddot": 0,
        "tle_line1": "1 66052U 98067XR  25343.50002217  .00044690  00000+0  68667-3 0  9991",
        "tle_line2": "2 66052  51.6290 157.6571 0003811 171.0105 189.0954 15.53794743  8332"
      },
      "geometry": {
        "type": "Point",
        "coordinates": [
          -4.221200104667183,
          -23.26008875928148
        ]
      }
    }
  ]
}